{
  "norad_id": 63173,
  "name": "QIANFAN-87",
  "history": [
    {
      "epoch": "2026-04-30T13:04:02.069760Z",
      "apogee_km": 1078.7801671661882,
      "perigee_km": 1058.4245051907437,
      "latitude_deg": -1.329395711565603e-05,
      "longitude_deg": -108.97941268327017,
      "height_km": 1071.0152461954851,
      "semi_major_axis_km": 7446.739336178465,
      "eccentricity": 0.00136675,
      "inclination_deg": 88.9679,
      "raan_deg": 305.5189,
      "arg_perigee_deg": 87.1512,
      "mean_anomaly_deg": 273.1203,
      "mean_motion_rev_day": 13.50994353
    },
    {
      "epoch": "2026-05-02T11:16:58.442304Z",
      "apogee_km": 1078.7648070505502,
      "perigee_km": 1058.4381896454597,
      "latitude_deg": 2.0299795145440397e-05,
      "longitude_deg": -84.31310996104303,
      "height_km": 1070.1777356732557,
      "semi_major_axis_km": 7446.738498348005,
      "eccentricity": 0.0013648,
      "inclination_deg": 88.9678,
      "raan_deg": 305.3181,
      "arg_perigee_deg": 82.4079,
      "mean_anomaly_deg": 277.8622,
      "mean_motion_rev_day": 13.50994581
    },
    {
      "epoch": "2026-05-03T19:16:42.044160Z",
      "apogee_km": 1078.7408463931351,
      "perigee_km": 1058.460401148558,
      "latitude_deg": 9.171240579430529e-06,
      "longitude_deg": 154.30200560950678,
      "height_km": 1069.6134446141298,
      "semi_major_axis_km": 7446.737623770847,
      "eccentricity": 0.0013617,
      "inclination_deg": 88.9679,
      "raan_deg": 305.1789,
      "arg_perigee_deg": 79.1624,
      "mean_anomaly_deg": 281.1059,
      "mean_motion_rev_day": 13.50994819
    },
    {
      "epoch": "2026-05-04T18:23:10.186368Z",
      "apogee_km": 1078.719369981075,
      "perigee_km": 1058.4806281649935,
      "latitude_deg": -2.8947138738932566e-05,
      "longitude_deg": 166.63523806239095,
      "height_km": 1069.2105204200013,
      "semi_major_axis_km": 7446.736999073034,
      "eccentricity": 0.0013589,
      "inclination_deg": 88.9679,
      "raan_deg": 305.0784,
      "arg_perigee_deg": 76.8082,
      "mean_anomaly_deg": 283.4584,
      "mean_motion_rev_day": 13.50994989
    },
    {
      "epoch": "2026-05-05T19:16:17.377824Z",
      "apogee_km": 1078.7094491202752,
      "perigee_km": 1058.4870948157186,
      "latitude_deg": -3.489320123335588e-05,
      "longitude_deg": 152.2250653966549,
      "height_km": 1068.7696525111367,
      "semi_major_axis_km": 7446.735271967997,
      "eccentricity": 0.0013578,
      "inclination_deg": 88.968,
      "raan_deg": 304.9702,
      "arg_perigee_deg": 74.2241,
      "mean_anomaly_deg": 286.0406,
      "mean_motion_rev_day": 13.50995459
    },
    {
      "epoch": "2026-05-06T18:22:44.871168Z",
      "apogee_km": 1078.5516996043616,
      "perigee_km": 1058.5275861117152,
      "latitude_deg": -1.1580564042445751e-05,
      "longitude_deg": 164.5610096015726,
      "height_km": 1068.3456942118182,
      "semi_major_axis_km": 7446.676642858038,
      "eccentricity": 0.0013445,
      "inclination_deg": 88.968,
      "raan_deg": 304.8697,
      "arg_perigee_deg": 71.8715,
      "mean_anomaly_deg": 288.3899,
      "mean_motion_rev_day": 13.51011414
    },
    {
      "epoch": "2026-05-07T19:15:51.005088Z",
      "apogee_km": 1078.5276641844812,
      "perigee_km": 1058.551209974372,
      "latitude_deg": -1.0047250205471415e-05,
      "longitude_deg": 150.15545579803526,
      "height_km": 1067.9401749535025,
      "semi_major_axis_km": 7446.676437079426,
      "eccentricity": 0.0013413,
      "inclination_deg": 88.9681,
      "raan_deg": 304.7617,
      "arg_perigee_deg": 69.3573,
      "mean_anomaly_deg": 290.9015,
      "mean_motion_rev_day": 13.5101147
    },
    {
      "epoch": "2026-05-08T18:22:18.108768Z",
      "apogee_km": 1078.4977979312434,
      "perigee_km": 1058.5794299990102,
      "latitude_deg": 9.590692550721594e-06,
      "longitude_deg": 162.49302882343903,
      "height_km": 1067.563155323428,
      "semi_major_axis_km": 7446.675613965127,
      "eccentricity": 0.0013374,
      "inclination_deg": 88.9681,
      "raan_deg": 304.6612,
      "arg_perigee_deg": 66.9574,
      "mean_anomaly_deg": 293.2986,
      "mean_motion_rev_day": 13.51011694
    },
    {
      "epoch": "2026-05-09T19:15:24.213312Z",
      "apogee_km": 1078.4448897393331,
      "perigee_km": 1058.6322646985836,
      "latitude_deg": -7.750358752674892e-05,
      "longitude_deg": 148.08739759476217,
      "height_km": 1067.1886498606784,
      "semi_major_axis_km": 7446.675577218958,
      "eccentricity": 0.0013303,
      "inclination_deg": 88.9681,
      "raan_deg": 304.553,
      "arg_perigee_deg": 64.4434,
      "mean_anomaly_deg": 295.809,
      "mean_motion_rev_day": 13.51011704
    },
    {
      "epoch": "2026-05-10T18:21:51.291072Z",
      "apogee_km": 1078.4056335008963,
      "perigee_km": 1058.6704552982283,
      "latitude_deg": 2.3701174516584932e-05,
      "longitude_deg": 160.4250820538284,
      "height_km": 1066.8380861466787,
      "semi_major_axis_km": 7446.675044399562,
      "eccentricity": 0.0013251,
      "inclination_deg": 88.9682,
      "raan_deg": 304.4525,
      "arg_perigee_deg": 62.0529,
      "mean_anomaly_deg": 298.1962,
      "mean_motion_rev_day": 13.51011849
    },
    {
      "epoch": "2026-05-11T19:14:57.355872Z",
      "apogee_km": 1078.355096872524,
      "perigee_km": 1058.719705811066,
      "latitude_deg": -7.239696728029154e-05,
      "longitude_deg": 146.01961862773737,
      "height_km": 1066.4769786268619,
      "semi_major_axis_km": 7446.674401341795,
      "eccentricity": 0.0013184,
      "inclination_deg": 88.9681,
      "raan_deg": 304.3443,
      "arg_perigee_deg": 59.4784,
      "mean_anomaly_deg": 300.7666,
      "mean_motion_rev_day": 13.51012024
    },
    {
      "epoch": "2026-05-12T20:08:03.401664Z",
      "apogee_km": 1078.308928912371,
      "perigee_km": 1058.764389226778,
      "latitude_deg": -7.449130458472496e-05,
      "longitude_deg": 131.61433704016966,
      "height_km": 1066.124883650247,
      "semi_major_axis_km": 7446.673659069575,
      "eccentricity": 0.0013123,
      "inclination_deg": 88.9682,
      "raan_deg": 304.2362,
      "arg_perigee_deg": 56.8872,
      "mean_anomaly_deg": 303.3536,
      "mean_motion_rev_day": 13.51012226
    }
  ]
}